[{"OBJECT_NAME":"GLOBALSTAR M096","OBJECT_ID":"2013-005D","EPOCH":"2026-03-02T15:31:13.553760","MEAN_MOTION":12.62263267,"ECCENTRICITY":9.08e-5,"INCLINATION":52.0067,"RA_OF_ASC_NODE":163.9001,"ARG_OF_PERICENTER":108.1511,"MEAN_ANOMALY":251.9454,"EPHEMERIS_TYPE":0,"CLASSIFICATION_TYPE":"U","NORAD_CAT_ID":39075,"ELEMENT_SET_NO":999,"REV_AT_EPOCH":60393,"BSTAR":-3.0783e-5,"MEAN_MOTION_DOT":-1.09e-6,"MEAN_MOTION_DDOT":0},{"OBJECT_NAME":"GLOBALSTAR M078","OBJECT_ID":"2013-005E","EPOCH":"2026-03-02T16:46:58.456416","MEAN_MOTION":12.62275893,"ECCENTRICITY":0.0001493,"INCLINATION":51.9851,"RA_OF_ASC_NODE":247.8979,"ARG_OF_PERICENTER":61.0466,"MEAN_ANOMALY":299.055,"EPHEMERIS_TYPE":0,"CLASSIFICATION_TYPE":"U","NORAD_CAT_ID":39076,"ELEMENT_SET_NO":999,"REV_AT_EPOCH":60256,"BSTAR":4.2442e-5,"MEAN_MOTION_DOT":-9.6e-7,"MEAN_MOTION_DDOT":0},{"OBJECT_NAME":"GLOBALSTAR M095","OBJECT_ID":"2013-005F","EPOCH":"2026-03-02T19:19:19.362144","MEAN_MOTION":12.62276117,"ECCENTRICITY":0.0001368,"INCLINATION":52.006,"RA_OF_ASC_NODE":245.0297,"ARG_OF_PERICENTER":84.3365,"MEAN_ANOMALY":275.7658,"EPHEMERIS_TYPE":0,"CLASSIFICATION_TYPE":"U","NORAD_CAT_ID":39077,"ELEMENT_SET_NO":999,"REV_AT_EPOCH":60243,"BSTAR":2.7445e-5,"MEAN_MOTION_DOT":-9.9e-7,"MEAN_MOTION_DDOT":0},{"OBJECT_NAME":"GLOBALSTAR M087","OBJECT_ID":"2022-064A","EPOCH":"2026-03-02T13:56:26.660832","MEAN_MOTION":12.62266763,"ECCENTRICITY":6.58e-5,"INCLINATION":52.0016,"RA_OF_ASC_NODE":27.0099,"ARG_OF_PERICENTER":84.7083,"MEAN_ANOMALY":275.3859,"EPHEMERIS_TYPE":0,"CLASSIFICATION_TYPE":"U","NORAD_CAT_ID":52888,"ELEMENT_SET_NO":999,"REV_AT_EPOCH":17767,"BSTAR":-8.0406e-6,"MEAN_MOTION_DOT":-1.05e-6,"MEAN_MOTION_DDOT":0}]
