GLOBALSTAR M096         
1 39075U 13005D   26061.64668465 -.00000109  00000+0 -30783-4 0  9999
2 39075  52.0067 163.9001 0000908 108.1511 251.9454 12.62263267603938
GLOBALSTAR M078         
1 39076U 13005E   26061.69928769 -.00000096  00000+0  42442-4 0  9990
2 39076  51.9851 247.8979 0001493  61.0466 299.0550 12.62275893602566
GLOBALSTAR M095         
1 39077U 13005F   26061.80508521 -.00000099  00000+0  27445-4 0  9993
2 39077  52.0060 245.0297 0001368  84.3365 275.7658 12.62276117602437
GLOBALSTAR M087         
1 52888U 22064A   26061.58086413 -.00000105  00000+0 -80406-5 0  9995
2 52888  52.0016  27.0099 0000658  84.7083 275.3859 12.62266763177671
